OBJECT_NAME,OBJECT_ID,EPOCH,MEAN_MOTION,ECCENTRICITY,INCLINATION,RA_OF_ASC_NODE,ARG_OF_PERICENTER,MEAN_ANOMALY,EPHEMERIS_TYPE,CLASSIFICATION_TYPE,NORAD_CAT_ID,ELEMENT_SET_NO,REV_AT_EPOCH,BSTAR,MEAN_MOTION_DOT,MEAN_MOTION_DDOT
STARLINK-2453,2021-018BL,2026-07-07T01:36:51.835104,15.31704703,.0001155,53.1598,63.2025,82.4985,277.6148,0,U,47845,999,29478,.22201E-3,.6531E-4,0
SHIYAN-9 (SY-9),2021-019A,2026-07-06T16:12:02.640384,1.00267755,.0013165,16.4861,302.1909,26.4514,345.7806,0,U,47851,999,2433,0,-.225E-5,0
YAOGAN-31 04A,2021-020A,2026-07-07T03:40:02.915328,13.45449275,.0176782,63.4033,206.6858,0.4718,359.6444,0,U,47854,999,26115,.16143E-3,.15E-6,0
YAOGAN-31 04B,2021-020C,2026-07-07T03:40:19.484256,13.45449281,.01765,63.4028,207.4750,0.5614,359.5579,0,U,47856,999,26109,.2025E-3,.42E-6,0
YAOGAN-31 04C,2021-020D,2026-07-07T03:40:23.532960,13.45449818,.017658,63.4039,206.7686,0.4012,359.7124,0,U,47857,999,26114,.18946E-3,.33E-6,0
STARLINK-2280,2021-021B,2026-07-06T22:15:27.790272,15.31692850,.0001245,53.1591,63.5441,110.0709,250.0427,0,U,47861,999,29466,.74808E-3,.22915E-3,0
STARLINK-2291,2021-021C,2026-07-07T04:00:03.000096,15.77603825,.000104,53.1557,46.7609,85.3694,103.9465,0,U,47862,999,596,.17772E-2,.313116E-2,0
STARLINK-2326,2021-021L,2026-07-07T02:58:49.521792,15.31724956,.000131,53.1587,85.2907,59.5240,300.5891,0,U,47870,999,29426,.28359E-3,.8452E-4,0
STARLINK-2329,2021-021P,2026-07-06T21:34:37.322112,15.31696566,.0001208,53.1598,60.7812,103.7363,256.3773,0,U,47873,999,29468,-.15501E-5,-.413E-5,0
STARLINK-2330,2021-021Q,2026-07-06T20:35:22.476192,15.39668640,.0002701,53.1442,19.6955,135.0243,225.0981,0,U,47874,999,29525,.1073E-2,.42834E-3,0
STARLINK-2336,2021-021V,2026-07-07T04:00:03.000096,15.78358776,.0000653,53.1522,68.3003,141.5407,92.8446,0,U,47879,999,602,.39437E-3,.69306E-3,0
STARLINK-2342,2021-021Z,2026-07-07T04:00:03.000096,15.89271891,.0006224,53.1515,47.3755,255.2675,94.8517,0,U,47883,999,608,.64956E-3,.195869E-2,0
STARLINK-2343,2021-021AA,2026-07-06T23:57:38.407680,15.31703939,.0001185,53.1593,85.9154,94.9056,265.2080,0,U,47884,999,29433,.14E-5,-.322E-5,0
STARLINK-2346,2021-021AD,2026-07-07T03:25:43.603392,15.31692265,.0001469,53.1586,85.2001,101.9871,258.1295,0,U,47887,999,29436,.65661E-3,.2006E-3,0
STARLINK-2354,2021-021AL,2026-07-07T01:14:52.870848,15.35829477,.0001296,53.1499,71.9763,151.8707,208.2367,0,U,47894,999,29448,.1212E-2,.42722E-3,0
STARLINK-2355,2021-021AM,2026-07-07T01:33:55.715616,15.31704028,.0001261,53.1591,72.7395,94.9610,265.1535,0,U,47895,999,29451,.50613E-3,.15375E-3,0
STARLINK-2356,2021-021AN,2026-07-06T21:43:25.944096,15.31689252,.0001137,53.1613,86.2949,92.7682,267.3450,0,U,47896,999,29428,.32562E-3,.9749E-4,0
STARLINK-2358,2021-021AQ,2026-07-06T22:05:51.052992,15.31696907,.0001364,53.1585,73.3454,92.2021,267.9136,0,U,47898,999,29446,.57076E-4,.1406E-4,0
STARLINK-2361,2021-021AT,2026-07-07T01:00:15.712128,15.40841293,.0003296,53.1552,56.7448,92.4098,267.7284,0,U,47901,999,29475,.95948E-3,.39765E-3,0
STARLINK-2363,2021-021AV,2026-07-07T13:10:34.866624,16.38258760,.0013387,53.1370,11.2515,286.5624,73.3952,0,U,47903,999,29577,.64467E-3,.7488447E-1,.12358E-4
STARLINK-2364,2021-021AW,2026-07-06T21:21:11.073600,15.31689972,.0001311,53.1570,60.6618,65.7055,294.4083,0,U,47904,999,29467,.73939E-3,.22641E-3,0
STARLINK-2367,2021-021AZ,2026-07-06T22:57:16.776288,15.31711768,.0001441,53.1607,86.2081,90.4281,269.6885,0,U,47907,999,29429,.22308E-3,.6566E-4,0
STARLINK-2370,2021-021BC,2026-07-07T02:34:19.372224,15.31709982,.0001386,53.1584,72.5158,77.5683,282.5473,0,U,47910,999,29455,.36049E-3,.10841E-3,0
STARLINK-2371,2021-021BD,2026-07-06T22:50:33.120672,15.31692481,.0001343,53.1579,86.0971,94.9254,265.1901,0,U,47911,999,29418,.35578E-3,.10688E-3,0
STARLINK-2378,2021-021BJ,2026-07-06T23:01:52.127040,15.31717511,.000295,53.1591,60.5023,41.6504,318.4721,0,U,47916,999,29468,.31512E-3,.9431E-4,0
STARLINK-2405,2021-021BM,2026-07-07T02:52:09.107040,15.31700576,.0001364,53.1591,85.2890,74.9889,285.1263,0,U,47919,999,29434,.30897E-3,.9235E-4,0
CAS500-1,2021-022A,2026-07-07T04:55:37.055136,15.20210842,.0004043,97.3874,83.0512,201.1519,158.9550,0,U,47932,999,29380,.2236E-3,.4778E-4,0
GRUS-1C,2021-022B,2026-07-07T05:14:26.221920,14.98703172,.001079,97.5332,70.6608,246.1992,113.8100,0,U,47933,999,28890,.16643E-3,.1946E-4,0
GRUS-1B,2021-022C,2026-07-07T04:56:08.737152,14.98762930,.0014623,97.5338,70.7377,249.1920,110.7737,0,U,47934,999,28889,.12669E-3,.1471E-4,0
GRUS-1E,2021-022D,2026-07-07T04:01:28.519680,14.98952163,.0007521,97.5396,71.9112,251.8179,108.2226,0,U,47935,999,28894,.20423E-3,.2415E-4,0
GRUS-1D,2021-022E,2026-07-07T03:55:11.824320,14.98753091,.0009226,97.5369,70.8929,233.0464,126.9915,0,U,47936,999,28889,.20978E-3,.247E-4,0
UNISAT-7,2021-022P,2026-07-07T00:47:34.268064,15.41038284,.0009005,97.3864,93.1692,17.5564,342.5992,0,U,47945,999,29291,.27285E-3,.11197E-3,0
GLOBAL-9,2021-023G,2026-07-06T08:49:08.825664,15.47338011,.0002625,44.9802,142.6639,95.8826,264.2364,0,U,47971,999,29791,.34917E-3,.17918E-3,0
STARLINK-1647,2021-024B,2026-07-06T03:21:13.910976,15.31675501,.0001273,53.1593,141.2783,82.0766,278.0380,0,U,47978,999,29277,-.19229E-3,-.6322E-4,0
STARLINK-2303,2021-024E,2026-07-06T06:21:59.244192,15.31698947,.0001556,53.1591,140.7556,101.7690,258.3486,0,U,47981,999,29279,.1161044E-3,.3239E-4,0
STARLINK-2273,2021-024S,2026-07-07T04:11:54.674304,15.72171248,.000117,53.1486,87.8685,133.9316,226.1799,0,U,47993,999,29360,.5927E-3,.7977E-3,0
STARLINK-2266,2021-024W,2026-07-06T23:53:05.620416,15.31688009,.0000793,53.1585,111.6818,78.4168,281.6923,0,U,47997,999,29326,.8401E-3,.25785E-3,0
STARLINK-2270,2021-024Z,2026-07-06T21:30:13.509216,15.43796233,.0005361,53.1270,41.6306,97.1719,262.9897,0,U,48000,999,29417,.38933E-3,.17528E-3,0
STARLINK-2153,2021-024AJ,2026-07-07T04:16:19.119648,15.31700852,.0002181,53.1581,113.4673,73.4353,286.6887,0,U,48009,999,29320,.53877E-3,.16391E-3,0
STARLINK-2226,2021-024AK,2026-07-06T06:35:55.999680,15.31673845,.00013236,53.1593,140.9333,98.5108,261.6044,0,U,48010,999,29273,-.16000794E-3,-.5323E-4,0
STARLINK-2285,2021-024AU,2026-07-06T22:39:16.693344,15.31690740,.0002399,53.1575,112.0204,157.9057,202.2048,0,U,48019,999,29319,.39362E-3,.11865E-3,0
STARLINK-2298,2021-024AX,2026-07-07T04:00:03.000096,15.63739413,.0001384,53.1195,123.6424,83.5222,132.4799,0,U,48022,999,601,.9544E-2,.992215E-2,0
STARLINK-2292,2021-024AY,2026-07-06T05:44:12.458976,15.45994841,.00057606,53.1171,133.7318,50.6912,309.4605,0,U,48023,999,29287,.15171906E-2,.75536E-3,0
STARLINK-2299,2021-024BE,2026-07-07T04:00:03.000096,15.80137072,.000236,53.1129,119.1908,183.4946,65.7788,0,U,48029,999,598,.41359E-3,.78962E-3,0
ONEWEB-0115,2021-025A,2026-07-07T03:13:16.787712,13.13487266,.0001908,87.8974,316.2535,93.2688,266.8659,0,U,48042,999,25621,.40466E-2,.1491E-4,0
ONEWEB-0152,2021-025B,2026-07-06T20:14:01.578048,13.13469104,.0001779,87.8984,316.3089,100.2003,259.9327,0,U,48043,999,25613,-.86099E-3,-.302E-5,0
ONEWEB-0153,2021-025C,2026-07-06T21:32:01.842720,13.13468770,.0001989,87.8975,316.2995,98.8314,261.3040,0,U,48044,999,25613,.48714E-3,.191E-5,0
ONEWEB-0154,2021-025D,2026-07-06T21:27:09.734688,13.13469112,.0001851,87.8982,316.2988,105.0007,255.1327,0,U,48045,999,25609,.81247E-3,.309E-5,0
ONEWEB-0116,2021-025E,2026-07-06T20:33:31.434048,13.13482495,.00018,87.8979,316.3045,100.6236,259.5096,0,U,48046,999,25623,-.72208E-2,-.2624E-4,0
ONEWEB-0150,2021-025F,2026-07-06T21:49:06.074112,13.13468858,.0001955,87.8981,316.2903,93.3998,266.7354,0,U,48047,999,25613,-.5268E-3,-.18E-5,0
ONEWEB-0107,2021-025G,2026-07-06T21:51:33.534720,13.13468912,.0002114,87.8983,316.2861,98.9069,261.2300,0,U,48048,999,25611,.47175E-3,.185E-5,0
ONEWEB-0101,2021-025H,2026-07-06T20:57:55.115712,13.13471322,.0001973,87.8972,316.3073,102.1947,257.9403,0,U,48049,999,25608,.58689E-3,.227E-5,0
ONEWEB-0113,2021-025J,2026-07-06T21:23:51.864000,13.13891777,.0001848,87.8978,316.2119,95.1920,264.9420,0,U,48050,999,25619,.66179E-3,.256E-5,0
ONEWEB-0112,2021-025K,2026-07-06T21:58:50.691072,13.13468751,.0002066,87.8984,316.2835,103.1655,256.9704,0,U,48051,999,25618,-.48964E-3,-.166E-5,0
ONEWEB-0156,2021-025L,2026-07-06T22:11:02.586336,13.13471194,.0002005,87.8982,316.2914,96.6148,263.5210,0,U,48052,999,25616,-.10096E-2,-.356E-5,0
ONEWEB-0161,2021-025M,2026-07-06T21:34:27.957216,13.13468202,.0002086,87.8981,316.2974,97.0878,263.0488,0,U,48053,999,25609,.39089E-3,.155E-5,0
ONEWEB-0158,2021-025N,2026-07-06T20:35:57.278112,13.13469485,.000176,87.8982,316.3033,105.2574,254.8750,0,U,48054,999,25621,-.31933E-3,-.104E-5,0
ONEWEB-0157,2021-025P,2026-07-06T21:12:32.646816,13.13470646,.0002302,87.8979,316.3030,100.0054,260.1335,0,U,48055,999,25615,.96258E-3,.364E-5,0
ONEWEB-0162,2021-025Q,2026-07-06T20:38:12.806880,13.13469962,.0001926,87.8974,316.3081,94.1120,266.0229,0,U,48056,999,25612,-.32469E-3,-.106E-5,0
ONEWEB-0155,2021-025R,2026-07-06T20:48:12.217248,13.13473952,.0002028,87.8978,316.3035,97.9884,262.1475,0,U,48057,999,25626,.11622E-3,.55E-6,0
ONEWEB-0149,2021-025S,2026-07-06T21:19:51.383424,13.13469378,.0001931,87.8980,316.3029,93.0644,267.0706,0,U,48058,999,25607,.86352E-3,.328E-5,0
ONEWEB-0148,2021-025T,2026-07-06T20:26:12.737184,13.13469141,.0002144,87.8973,316.3162,84.2986,275.8388,0,U,48059,999,25619,-.72505E-3,-.252E-5,0
ONEWEB-0160,2021-025U,2026-07-06T17:11:11.814144,13.13468721,.000118,87.8972,316.3390,106.0948,254.0311,0,U,48060,999,25612,-.17001E-3,-.49E-6,0
ONEWEB-0163,2021-025V,2026-07-06T20:28:38.881056,13.13469387,.0002195,87.8982,316.3076,99.9180,260.2197,0,U,48061,999,25626,-.76602E-3,-.267E-5,0
ONEWEB-0159,2021-025W,2026-07-06T20:16:27.647616,13.13469408,.0002158,87.8982,316.3033,100.5970,259.5402,0,U,48062,999,25618,-.75987E-3,-.265E-5,0
ONEWEB-0164,2021-025X,2026-07-06T21:39:20.595744,13.13468578,.0001828,87.8983,316.2981,100.2291,259.9044,0,U,48063,999,25617,.90019E-4,.46E-6,0
